SatCatId,ObjectName,LaunchYear,OrbitalPeriod,LaunchMass,StatusCode,Status,UcsData,OrbitClass,LaunchSiteCountry,Owner,UseType,Purpose,LaunchVehicleClass,TLE1,TLE2
49139,STARLINK-3057,2021,96.11,260.0,+,Active,1,LEO,USA,USA,Commercial,Communications,Falcon,1 49139U 21082K   22309.64297950  .00000589  00000+0  57184-4 0  9997,2 49139  70.0003  90.6262 0002627 266.7492  93.3367 14.98334999 64219
49140,STARLINK-3118,2021,96.11,260.0,+,Active,1,LEO,USA,USA,Commercial,Communications,Falcon,1 49140U 21082L   22310.50132054 -.00001777  00000+0 -14120-3 0  9993,2 49140  69.9994  88.4587 0003473 268.0193  92.0568 14.98326083 64343
49141,STARLINK-3093,2021,96.11,260.0,+,Active,1,LEO,USA,USA,Commercial,Communications,Falcon,1 49141U 21082M   22310.06950323 -.00000316  00000+0 -18701-4 0  9990,2 49141  69.9987 129.5413 0003152 246.8232 113.2595 14.98331146 64491
49142,STARLINK-3042,2021,96.11,260.0,+,Active,1,LEO,USA,USA,Commercial,Communications,Falcon,1 49142U 21082N   22310.09599656 -.00001897  00000+0 -15131-3 0  9990,2 49142  69.9992  89.4858 0003312 256.8082 103.2707 14.98314400 64282
49143,STARLINK-3109,2021,96.11,260.0,+,Active,1,LEO,USA,USA,Commercial,Communications,Falcon,1 49143U 21082P   22309.70364607  .00000811  00000+0  75769-4 0  9990,2 49143  69.9973 110.4606 0003331 232.0639 128.0219 14.98328090 64848
49144,STARLINK-3100,2021,96.11,260.0,+,Active,1,LEO,USA,USA,Commercial,Communications,Falcon,1 49144U 21082Q   22309.79768211  .00000002  00000+0  79318-5 0  9996,2 49144  69.9990 130.2409 0003124 253.8101 106.2714 14.98335062 63253
49145,STARLINK-3119,2021,96.11,260.0,+,Active,1,LEO,USA,USA,Commercial,Communications,Falcon,1 49145U 21082R   22309.68112274 -.00001546  00000+0 -12181-3 0  9996,2 49145  70.0000  90.5315 0002873 264.5032  95.5800 14.98320654 64219
49146,STARLINK-3116,2021,96.11,260.0,+,Active,1,LEO,USA,USA,Commercial,Communications,Falcon,1 49146U 21082S   22309.69887171  .00000751  00000+0  70730-4 0  9993,2 49146  69.9986 110.4895 0003103 251.5818 108.5004 14.98329621 64887
49147,STARLINK-3071,2021,96.11,260.0,+,Active,1,LEO,USA,USA,Commercial,Communications,Falcon,1 49147U 21082T   22310.49177608 -.00000495  00000+0 -33707-4 0  9991,2 49147  69.9996  88.4913 0003254 261.6837  98.3953 14.98326429 65517
49148,STARLINK-3048,2021,96.11,260.0,+,Active,1,LEO,USA,USA,Commercial,Communications,Falcon,1 49148U 21082U   22310.42845787 -.00000640  00000+0 -45881-4 0  9993,2 49148  69.9982 108.6381 0002872 253.7455 106.3388 14.98335883 64964
49149,STARLINK-3053,2021,96.11,260.0,+,Active,1,LEO,USA,USA,Commercial,Communications,Falcon,1 49149U 21082V   22310.05996380 -.00000132  00000+0 -33015-5 0  9992,2 49149  69.9986 129.5782 0003101 253.3741 106.7078 14.98339313 64496
49150,STARLINK-3104,2021,96.11,260.0,+,Active,1,LEO,USA,USA,Commercial,Communications,Falcon,1 49150U 21082W   22309.92167029 -.00000245  00000+0 -12752-4 0  9997,2 49150  69.9998 129.9258 0003137 252.8615 107.2201 14.98330561 64474
49151,STARLINK-3102,2021,96.11,260.0,+,Active,1,LEO,USA,USA,Commercial,Communications,Falcon,1 49151U 21082X   22309.67158458 -.00000309  00000+0 -18134-4 0  9997,2 49151  69.9989  90.5496 0003274 250.3045 109.7761 14.98330366 65410
49152,STARLINK-3081,2021,96.11,260.0,+,Active,1,LEO,USA,USA,Commercial,Communications,Falcon,1 49152U 21082Y   22310.44887468 -.00001733  00000+0 -13754-3 0  9999,2 49152  69.9987  88.5860 0003121 258.3009 101.7800 14.98312956 65466
49153,STARLINK-3072,2021,96.11,260.0,+,Active,1,LEO,USA,USA,Commercial,Communications,Falcon,1 49153U 21082Z   22310.12936828 -.00003292  00000+0 -26824-3 0  9994,2 49153  69.9992  89.4008 0003187 264.8556  95.2239 14.98322961 64276
49154,STARLINK-3068,2021,96.11,260.0,+,Active,1,LEO,USA,USA,Commercial,Communications,Falcon,1 49154U 21082AA  22310.49046601 -.00001806  00000+0 -14363-3 0  9990,2 49154  69.9981 108.4790 0003765 233.9286 126.1525 14.98324118 64924
49155,STARLINK-3060,2021,96.11,260.0,+,Active,1,LEO,USA,USA,Commercial,Communications,Falcon,1 49155U 21082AB  22310.45840342 -.00000521  00000+0 -35885-4 0  9997,2 49155  70.0021  88.5647 0005531 252.0013 108.0543 14.98317294 65416
49156,STARLINK-3085,2021,96.11,260.0,+,Active,1,LEO,USA,USA,Commercial,Communications,Falcon,1 49156U 21082AC  22310.43931936  .00000574  00000+0  55891-4 0  9991,2 49156  69.9993  88.6134 0002977 265.9377  94.1441 14.98324965 65416
49157,STARLINK-3051,2021,96.11,260.0,+,Active,1,LEO,USA,USA,Commercial,Communications,Falcon,1 49157U 21082AD  22309.55104748  .00000980  00000+0  89892-4 0  9995,2 49157  69.9988 110.8462 0003531 219.5211 140.5691 14.98335241 64806
49158,STARLINK-3083,2021,96.1,260.0,+,Active,1,LEO,USA,USA,Commercial,Communications,Falcon,1 49158U 21082AE  22310.48088961  .00001525  00000+0  13545-3 0  9995,2 49158  70.0017 108.5206 0003323 258.4711 101.6076 14.98357353 64947
49159,STARLINK-3056,2021,96.11,260.0,+,Active,1,LEO,USA,USA,Commercial,Communications,Falcon,1 49159U 21082AF  22309.91691866 -.00000195  00000+0 -85192-5 0  9999,2 49159  69.9991 129.9478 0003233 239.7419 120.3420 14.98333564 64366
49160,STARLINK-3095,2021,96.11,260.0,+,Active,1,LEO,USA,USA,Commercial,Communications,Falcon,1 49160U 21082AG  22310.24116872 -.00002493  00000+0 -20129-3 0  9998,2 49160  69.9981 129.1183 0002984 250.0415 110.0423 14.98315541 64393
49161,STARLINK-3080,2021,96.11,260.0,+,Active,1,LEO,USA,USA,Commercial,Communications,Falcon,1 49161U 21082AH  22309.77861618  .00000428  00000+0  43684-4 0  9996,2 49161  69.9983 130.2751 0003159 236.3994 123.6864 14.98337244 64320
49162,STARLINK-3082,2021,96.11,260.0,+,Active,1,LEO,USA,USA,Commercial,Communications,Falcon,1 49162U 21082AJ  22309.76907793 -.00000332  00000+0 -19997-4 0  9997,2 49162  69.9993 130.3035 0002965 263.0025  97.0797 14.98336354 64403
49163,STARLINK-3088,2021,96.11,260.0,+,Active,1,LEO,USA,USA,Commercial,Communications,Falcon,1 49163U 21082AK  22310.47613937  .00001139  00000+0  10320-3 0  9996,2 49163  69.9981 108.5294 0003048 260.0462 100.0353 14.98338110 65013
49164,STARLINK-3106,2021,96.11,260.0,+,Active,1,LEO,USA,USA,Commercial,Communications,Falcon,1 49164U 21082AL  22309.99929396 -.00000881  00000+0 -66056-4 0  9994,2 49164  69.9999 109.7243 0003333 251.0239 109.0558 14.98327728 64949
49165,STARLINK-3052,2021,96.11,260.0,+,Active,1,LEO,USA,USA,Commercial,Communications,Falcon,1 49165U 21082AM  22310.49868490  .00001690  00000+0  14936-3 0  9995,2 49165  69.9987 128.4667 0002986 249.1077 110.9763 14.98343773 64561
49166,STARLINK-3089,2021,96.11,260.0,+,Active,1,LEO,USA,USA,Commercial,Communications,Falcon,1 49166U 21082AN  22310.53813669  .00000187  00000+0  23426-4 0  9994,2 49166  70.0000 108.3661 0002977 259.3617 100.7207 14.98332597 65052
49167,STARLINK-3054,2021,96.11,260.0,+,Active,1,LEO,USA,USA,Commercial,Communications,Falcon,1 49167U 21082AP  22309.75954024 -.00000122  00000+0 -24268-5 0  9995,2 49167  69.9974 130.3295 0003071 227.9376 132.1522 14.98334287 64446
49168,STARLINK-3101,2021,96.11,260.0,+,Active,1,LEO,USA,USA,Commercial,Communications,Falcon,1 49168U 21082AQ  22310.45706540  .00000359  00000+0  37880-4 0  9996,2 49168  69.9981 108.5673 0003187 255.5462 104.5343 14.98337110 65042
49169,STARLINK-3046,2021,96.11,260.0,+,Active,1,LEO,USA,USA,Commercial,Communications,Falcon,1 49169U 21082AR  22310.46185338 -.00001574  00000+0 -12412-3 0  9999,2 49169  69.9989 108.5596 0003302 252.9567 107.1231 14.98324941 65055
49170,STARLINK-3074,2021,96.11,260.0,+,Active,1,LEO,USA,USA,Commercial,Communications,Falcon,1 49170U 21082AS  22310.20097553 -.00000433  00000+0 -28541-4 0  9998,2 49170  69.9996 129.2097 0003232 247.7613 112.3203 14.98323139 63319
49171,STARLINK-3107,2021,96.11,260.0,+,Active,1,LEO,USA,USA,Commercial,Communications,Falcon,1 49171U 21082AT  22310.48708224  .00000102  00000+0  16344-4 0  9992,2 49171  69.9956 128.4882 0002976 253.2055 106.8778 14.98333260 64519
49172,STARLINK-3091,2021,96.11,260.0,+,Active,1,LEO,USA,USA,Commercial,Communications,Falcon,1 49172U 21082AU  22310.43119241 -.00001124  00000+0 -86412-4 0  9993,2 49172  69.9989 108.6358 0003019 258.9644 101.1175 14.98321645 63836
49173,STARLINK-3045,2021,96.11,260.0,+,Active,1,LEO,USA,USA,Commercial,Communications,Falcon,1 49173U 21082AV  22310.18527107 -.00001424  00000+0 -11157-3 0  9996,2 49173  69.9997 109.2471 0003009 263.5097  96.5719 14.98322372 63808
49174,STARLINK-3047,2021,96.14,260.0,+,Active,1,LEO,USA,USA,Commercial,Communications,Falcon,1 49174U 21082AW  22310.14832292  .00002984  00000+0  26138-3 0  9992,2 49174  69.9984 109.5186 0002921 298.3576  61.7288 14.97785836 64961
49175,STARLINK-3087,2021,96.11,260.0,+,Active,1,LEO,USA,USA,Commercial,Communications,Falcon,1 49175U 21082AX  22309.94478369 -.00000335  00000+0 -20321-4 0  9999,2 49175  69.9995 109.8648 0003096 257.2881 102.7932 14.98327255 63764
49176,STARLINK-3069,2021,96.11,260.0,+,Active,1,LEO,USA,USA,Commercial,Communications,Falcon,1 49176U 21082AY  22310.53469824 -.00000295  00000+0 -16958-4 0  9999,2 49176  69.9998  88.3770 0003113 269.8641  90.2161 14.98327361 64346
49177,STARLINK-3103,2021,96.11,260.0,+,Active,1,LEO,USA,USA,Commercial,Communications,Falcon,1 49177U 21082AZ  22310.48701606 -.00001202  00000+0 -93004-4 0  9997,2 49177  70.0016  88.5017 0003024 261.0484  99.0333 14.98315841 65537
49178,STARLINK-3086,2021,96.11,260.0,+,Active,1,LEO,USA,USA,Commercial,Communications,Falcon,1 49178U 21082BA  22309.78133489 -.00000387  00000+0 -24658-4 0  9999,2 49178  69.9977 130.2786 0003446 239.9886 120.0931 14.98328399 64403
49179,STARLINK-3043,2021,96.11,260.0,+,Active,1,LEO,USA,USA,Commercial,Communications,Falcon,1 49179U 21082BB  22310.54421702 -.00011328  00000+0 -94188-3 0  9995,2 49179  70.0006  88.3556 0002943 267.3734  92.7088 14.98382127 64346
49180,STARLINK-3050,2021,96.11,260.0,+,Active,1,LEO,USA,USA,Commercial,Communications,Falcon,1 49180U 21082BC  22310.52655494 -.00000954  00000+0 -72152-4 0  9993,2 49180  69.9994 108.3913 0002964 257.2286 102.8541 14.98333640 65023
